[{"OBJECT_NAME":"ORBCOMM FM114","OBJECT_ID":"2015-081A","EPOCH":"2026-03-09T19:19:50.027232","MEAN_MOTION":14.58730278,"ECCENTRICITY":0.00012809,"INCLINATION":47.0041,"RA_OF_ASC_NODE":111.8258,"ARG_OF_PERICENTER":118.3075,"MEAN_ANOMALY":241.794,"EPHEMERIS_TYPE":0,"CLASSIFICATION_TYPE":"U","NORAD_CAT_ID":41179,"ELEMENT_SET_NO":999,"REV_AT_EPOCH":54324,"BSTAR":0.00018749739,"MEAN_MOTION_DOT":7.13e-6,"MEAN_MOTION_DDOT":0},{"OBJECT_NAME":"CZ-6A DEB","OBJECT_ID":"2024-140AAX","EPOCH":"2026-03-08T15:37:02.327232","MEAN_MOTION":14.74917539,"ECCENTRICITY":0.00765429,"INCLINATION":89.2201,"RA_OF_ASC_NODE":297.6926,"ARG_OF_PERICENTER":148.1947,"MEAN_ANOMALY":212.3931,"EPHEMERIS_TYPE":0,"CLASSIFICATION_TYPE":"U","NORAD_CAT_ID":61489,"ELEMENT_SET_NO":999,"REV_AT_EPOCH":7815,"BSTAR":0.0042618132,"MEAN_MOTION_DOT":0.00030106,"MEAN_MOTION_DDOT":0}]
